P/2011 S1 (Gibbs),e,2.6861,218.8505,192.4421,8.583569,0.0391924,0.20108446,108.1875,03/04.0/2022,2000,g  8.0,4.0
# From MPC 79022
P/2011 UA134 (Spacewatch-PANSTARRS),e,10.4405,40.4004,32.4072,5.608423,0.0742067,0.62954560,279.7542,03/04.0/2022,2000,g 17.5,4.0
# From MPC 77406
P/2011 V1 (Boattini),e,7.3750,46.8033,269.3437,3.856446,0.1301437,0.55037848,162.5049,03/04.0/2022,2000,g 15.5,4.0
# From MPC 82718
P/2011 W1 (PANSTARRS),e,3.7185,161.7865,282.7530,4.663507,0.0978667,0.28765853,2.3752,03/04.0/2022,2000,g 11.5,4.0
# From MPC 79342
P/2011 Y2 (Boattini),e,6.3741,309.3500,131.9211,6.239078,0.0632446,0.70985406,230.9723,03/04.0/2022,2000,g 15.0,4.0
# From MPC 94669
P/2012 B1 (PANSTARRS),e,7.6109,36.2154,162.4720,6.530800,0.0590547,0.40902786,186.3019,03/04.0/2022,2000,g  9.0,4.0
# From MPC 78590
P/2012 C3 (PANSTARRS),e,9.0920,135.3677,344.9542,9.748681,0.0323806,0.63011148,359.9758,10/06.0/2011,2000,g 13.0,4.0
# From MPC 84931
P/2012 F2 (PANSTARRS),e,14.7078,227.0091,33.3176,6.333025,0.0618425,0.54167728,200.9221,03/04.0/2022,2000,g 12.0,4.0
# From MPEC 2022-CN4
P/2012 G1 (PANSTARRS),e,12.1750,283.2807,266.0733,4.164333,0.1159808,0.32977629,60.2957,03/04.0/2022,2000,g 15.0,4.0
# From MPC 80898
P/2012 K3 (Gibbs),e,13.1930,125.8140,172.2246,3.627066,0.1426826,0.42302779,132.6405,03/04.0/2022,2000,g 15.0,4.0
# From MPC 88326
P/2012 NJ (La Sagra),e,84.6371,315.5590,338.3693,8.463929,0.0400264,0.84697331,142.0757,03/04.0/2022,2000,g 14.5,4.0
# From MPC 81470
P/2012 O1 (McNaught),e,7.4292,91.9582,238.2814,3.541239,0.1479011,0.59450674,162.2827,03/04.0/2022,2000,g 17.5,4.0
# From MPC 80899
P/2012 O2 (McNaught),e,24.4798,120.6836,183.4605,3.625131,0.1427968,0.53243010,147.4988,03/04.0/2022,2000,g 17.0,4.0
# From MPC 82720
P/2012 O3 (McNaught),e,16.6160,336.4137,344.7545,4.572266,0.1008108,0.64701367,351.2523,03/04.0/2022,2000,g 16.5,4.0
# From MPC 82320
P/2012 T2 (PANSTARRS),e,12.5628,73.7166,310.5651,5.731934,0.0718211,0.16185375,232.3272,03/04.0/2022,2000,g 10.0,4.0
# From MPC 80900
P/2012 T3 (PANSTARRS),e,9.5636,114.3918,195.5079,6.151217,0.0646045,0.61707867,231.9326,03/04.0/2022,2000,g 15.0,4.0
# From MPC 82720
P/2012 U2 (PANSTARRS),e,10.7578,185.3141,228.2458,7.135811,0.0517058,0.49917126,175.7654,03/04.0/2022,2000,g 12.5,4.0
# From MPC 84024
P/2012 US27 (Siding Spring),e,39.3579,49.1920,0.8066,5.165986,0.0839410,0.64796714,279.2080,03/04.0/2022,2000,g 13.5,4.0
# From MPC 82721
P/2012 WA34 (Lemmon-PANSTARRS),e,6.0779,93.6897,356.0468,4.699513,0.0967442,0.34551295,312.6374,03/04.0/2022,2000,g 13.5,4.0
# From MPC 82721
P/2013 AL76 (Catalina),e,144.8555,145.9946,27.0626,6.497404,0.0595106,0.68630555,200.9068,03/04.0/2022,2000,g 16.0,4.0
# From MPC 91612
P/2013 G1 (Kowalski),e,5.4612,221.3486,51.5050,6.893479,0.0544561,0.51207379,163.5984,03/04.0/2022,2000,g 11.0,4.0
# From MPC 84025
P/2013 G4 (PANSTARRS),e,5.9163,339.6383,214.6519,4.440382,0.1053352,0.40944705,348.6881,03/04.0/2022,2000,g 15.0,4.0
# From MPC 91613
P/2013 J2 (McNaught),e,15.5225,289.3894,37.8073,6.222828,0.0634925,0.65760820,197.3221,03/04.0/2022,2000,g 13.0,4.0
# From MPC 86229
P/2013 N3 (PANSTARRS),e,2.1740,17.4639,323.9374,7.392874,0.0490325,0.59328303,143.9861,03/04.0/2022,2000,g 13.0,4.0
# From MPC 85834
P/2013 N5 (PANSTARRS),e,23.4534,187.1562,176.9171,6.797628,0.0556119,0.73240476,175.9313,03/04.0/2022,2000,g 17.0,4.0
# From MPC 85834
P/2013 P1 (PANSTARRS),e,18.7251,160.5904,138.2148,8.576755,0.0392391,0.60536901,129.0723,03/04.0/2022,2000,g 12.0,4.0
# From MPC 94671
P/2013 R3 (Catalina-PANSTARRS),e,0.8650,341.9938,11.2197,3.033056,0.1865879,0.27544868,220.6044,03/04.0/2022,2000,g 14.0,4.0
# From unp
P/2013 R3-A (Catalina-PANSTARRS),e,0.8644,341.9606,11.2587,3.032913,0.1866011,0.27541829,220.6427,03/04.0/2022,2000,g  9.0,4.0
# From MPEC 2015-M77
P/2013 R3-B (Catalina-PANSTARRS),e,0.8657,342.0165,11.1935,3.033133,0.1865808,0.27546362,220.5838,03/04.0/2022,2000,g  9.0,4.0
# From MPC 85835
P/2013 T1 (PANSTARRS),e,24.2983,10.0805,346.1308,5.858625,0.0695041,0.62418250,217.7446,03/04.0/2022,2000,g 16.5,4.0
# From MPC 86643
P/2013 T2 (Schwartz),e,9.4575,0.8012,345.5495,3.491098,0.1510988,0.50121655,124.5365,03/04.0/2022,2000,g 16.0,4.0
# From MPC 91613
P/2013 W1 (PANSTARRS),e,4.6957,117.8446,1.2574,3.488733,0.1512525,0.59272623,81.6407,03/04.0/2022,2000,g 17.5,4.0
# From MPC101095
P/2013 YG46 (Spacewatch),e,7.8568,48.8383,242.5719,3.275085,0.1662915,0.45479100,308.7444,03/04.0/2022,2000,g 10.0,4.0
# From MPC 89728
P/2014 A2 (Hill),e,24.5371,106.6299,356.1674,5.927441,0.0682972,0.64535967,209.4016,03/04.0/2022,2000,g 15.0,4.0
# From MPC 92981
P/2014 A3 (PANSTARRS),e,13.7077,229.9875,213.8896,4.614153,0.0994411,0.24720828,318.9347,03/04.0/2022,2000,g 12.0,4.0
# From MPEC 2021-Y10
C/2014 B1 (Schwartz),e,28.4114,161.4223,345.6704,4376,0.0000034,0.99781832,0.0000,09/06.8050/2017,2000,g  4.0,4.0
# From MPC102095
P/2014 C1 (TOTAS),e,2.6917,167.7906,23.8952,3.035664,0.1863474,0.44959231,196.5355,03/04.0/2022,2000,g 15.5,4.0
# From MPC 94280
C/2014 F3 (Sheppard-Trujillo),e,6.5765,326.6699,3.9301,14.96493,0.0170252,0.61962185,4.8695,03/04.0/2022,2000,g  6.0,4.0
# From MPC 98560
P/2014 L2 (NEOWISE),e,5.1997,149.3472,182.6896,6.304287,0.0622659,0.64819744,173.2828,03/04.0/2022,2000,g 12.0,4.0
# From MPC 90769
P/2014 L3 (Hill),e,6.2734,115.4813,178.6864,8.174140,0.0421736,0.77331804,118.1945,03/04.0/2022,2000,g 16.0,4.0
# From MPC 91614
P/2014 M4 (PANSTARRS),e,3.3394,263.2205,147.9852,5.870953,0.0692853,0.59496228,181.8120,03/04.0/2022,2000,g 15.0,4.0
# From MPC103844
P/2014 MG4 (Spacewatch-PANSTARRS),e,9.3695,311.7342,299.0781,5.012720,0.0878201,0.25920181,279.3427,03/04.0/2022,2000,g  9.5,4.0
# From MPC 98560
P/2014 O3 (PANSTARRS),e,7.8011,87.6444,204.7234,7.571126,0.0473111,0.38532585,136.0086,03/04.0/2022,2000,g 10.5,4.0
# From MPEC 2022-C56
C/2014 OG392 (PANSTARRS),e,9.0328,145.7950,254.1395,12.24086,0.0230137,0.18555592,2.1427,03/04.0/2022,2000,g  6.0,4.0
# From MPC 91615
P/2014 R5 (Lemmon-PANSTARRS),e,1.0883,126.5600,213.7357,4.057406,0.1205956,0.41393711,339.7457,03/04.0/2022,2000,g 15.0,4.0
# From MPC 91616
P/2014 U4 (PANSTARRS),e,6.4291,11.8868,347.7823,3.507245,0.1500565,0.46492990,57.5351,03/04.0/2022,2000,g 18.0,4.0
# From MPEC 2022-CN4
C/2014 UN271 (Bernardinelli-Bernstein),e,95.4350,189.9083,326.3241,21133,0.0000003,0.99948240,0.0000,01/25.1419/2031,2000,g  2.5,3.2
# From MPC 95211
P/2014 V1 (PANSTARRS),e,22.5268,166.2002,177.6173,5.480100,0.0768283,0.53448966,199.3086,03/04.0/2022,2000,g 14.0,4.0
# From MPC 93586
P/2014 W1 (PANSTARRS),e,8.8372,246.2423,152.1757,4.463896,0.1045040,0.38901236,291.4910,03/04.0/2022,2000,g 15.5,4.0
# From MPC105542
P/2014 W4 (PANSTARRS),e,15.2798,33.3748,67.6805,6.592869,0.0582227,0.35261563,131.3710,03/04.0/2022,2000,g 11.0,4.0
# From MPC 94281
P/2014 X1 (Elenin),e,26.0284,61.5358,33.9059,6.206973,0.0637359,0.70900972,166.9681,03/04.0/2022,2000,g 15.0,4.0
# From MPC 92275
P/2015 A3 (PANSTARRS),e,172.5355,277.2479,249.3555,7.811939,0.0451404,0.85070490,116.0984,03/04.0/2022,2000,g 20.0,4.0
# From MPC 99270
P/2015 B1 (PANSTARRS),e,18.0431,352.9560,188.9013,9.495215,0.0336858,0.36710125,79.6620,03/04.0/2022,2000,g  8.5,4.0
# From MPC109141
P/2015 B4 (Lemmon-PANSTARRS),e,1.7613,266.0369,227.3589,8.523340,0.0396086,0.56015872,102.4466,03/04.0/2022,2000,g 11.0,4.0
# From MPC101096
P/2015 C1 (TOTAS-Gibbs),e,13.9054,348.8020,178.1959,6.578789,0.0584097,0.56045307,146.3529,03/04.0/2022,2000,g 12.5,4.0
# From MPC109141
P/2015 D5 (Kowalski),e,20.5181,74.0638,39.7513,8.960689,0.0367445,0.48925465,106.3742,03/04.0/2022,2000,g  9.0,4.0
# From MPC 96866
P/2015 D6 (Lemmon-PANSTARRS),e,20.2022,45.9202,125.0902,7.139701,0.0516635,0.36134270,126.0644,03/04.0/2022,2000,g 10.5,4.0
# From MPEC 2021-P47
C/2015 ER61 (PANSTARRS),e,6.3232,235.0552,68.4920,532.5498,0.0000802,0.99803323,0.0000,05/10.3880/2017,2000,g 11.0,2.0
# From MPEC 2018-BF5
C/2015 E61-B (PANSTARRS),e,6.3247,235.0903,68.5815,1752,0.0000134,0.99940124,0.0000,05/10.3661/2017,2000,g 13.5,2.0
# From MPEC 2021-P47
P/2015 HG16 (PANSTARRS),e,18.7820,58.0424,47.7199,4.757420,0.0949832,0.35240973,268.4911,03/04.0/2022,2000,g 12.5,4.0
# From MPC 95213
P/2015 K5 (PANSTARRS),e,39.9448,134.1871,106.3534,6.724370,0.0565232,0.55252936,139.3801,03/04.0/2022,2000,g 13.5,4.0
# From MPC107684
P/2015 M2 (PANSTARRS),e,3.9710,86.5862,225.7902,7.237193,0.0506231,0.18051502,119.6838,03/04.0/2022,2000,g  8.5,4.0
# From MPEC 2021-P47
C/2015 O1 (PANSTARRS),h,02/20.0369/2018,127.2060,299.8441,89.5941,1.001526,3.725276,2000,6.5,4.0
# From MPC 99819
P/2015 P4 (PANSTARRS),e,8.7173,104.7226,280.6048,6.047550,0.0662727,0.58537158,147.9975,03/04.0/2022,2000,g 14.0,4.0
# From MPC102952
P/2015 PD229 (Cameron-ISON),e,2.0260,342.6392,352.5883,7.187927,0.0511445,0.32801400,122.2672,03/04.0/2022,2000,g 11.5,2.0
# From MPC 96867
P/2015 Q2 (Pimentel),e,146.5285,228.4852,244.5844,7.351883,0.0494432,0.75056364,117.2216,03/04.0/2022,2000,g 15.5,4.0
# From MPC 98562
P/2015 R1 (PANSTARRS),e,22.6896,48.3652,300.5169,5.880200,0.0691219,0.63437246,168.5983,03/04.0/2022,2000,g 14.0,4.0
# From MPC 95734
P/2015 R2 (PANSTARRS),e,15.4849,168.5969,149.8176,4.486820,0.1037041,0.45290563,254.5211,03/04.0/2022,2000,g 14.5,4.0
# From MPC117068
C/2015 T2 (PANSTARRS),e,124.5633,50.9882,30.6689,1755,0.0000134,0.99604572,0.0000,05/18.2205/2017,2000,g  8.0,4.0
# From MPC 96280
P/2015 T3 (PANSTARRS),e,13.0937,120.5019,178.6330,4.326181,0.1095335,0.50818108,359.9227,12/21.0/2014,2000,g 14.0,4.0
# From MPC102953
P/2015 TO19 (Lemmon-PANSTARRS),e,6.4998,321.6437,89.1271,4.553814,0.1014241,0.35884154,221.9950,03/04.0/2022,2000,g 14.0,4.0
# From MPC110080
P/2015 TP200 (LINEAR),e,8.7802,7.0163,82.4929,7.268524,0.0502962,0.53556167,98.2491,03/04.0/2022,2000,g 11.0,4.0
# From MPC115881
C/2015 V1 (PANSTARRS),e,139.2277,197.1543,179.6493,2091,0.0000103,0.99795575,0.0000,12/16.4828/2017,2000,g  6.5,4.0
# From MPC112390
C/2015 V2 (Johnson),h,06/11.2066/2017,49.8134,69.9815,164.9818,1.001740,1.647576,2000,5.0,4.0
# From MPC115881
